ONEWEB-0645             
1 55809U 23029P   24312.57085336  .00000154  00000+0  35256-3 0  9995
2 55809  87.9185  61.6351 0002066  90.4500 269.6870 13.19724223 81530
ONEWEB-0646             
1 55810U 23029Q   24312.37340919  .00000155  00000+0  35506-3 0  9995
2 55810  87.9183  61.6715 0001641  89.5467 270.5853 13.19726099 82180
ONEWEB-0648             
1 55811U 23029R   24312.54874214  .00000151  00000+0  37200-3 0  9994
2 55811  87.9033  46.3590 0002429  79.6148 280.5255 13.14504887 82324
ONEWEB-0649             
1 55812U 23029S   24312.33630372  .00000187  00000+0  43581-3 0  9995
2 55812  87.9179  61.6719 0002030  87.3212 272.8153 13.19726509 81529
ONEWEB-0650             
1 55813U 23029T   24312.71065475  .00000130  00000+0  29325-3 0  9992
2 55813  87.9184  61.6022 0001722  92.3191 267.8139 13.19726209 81549
ONEWEB-0652             
1 55814U 23029U   24312.91030027 -.00000362  00000+0 -10119-2 0  9999
2 55814  87.9030  46.2980 0001723 107.9504 252.1814 13.14503754 82343
ONEWEB-0653             
1 55815U 23029V   24312.51385339 -.00000012  00000+0 -68022-4 0  9995
2 55815  87.9035  46.3604 0001941 107.9906 252.1435 13.14504453 82325
ONEWEB-0654             
1 55816U 23029W   24312.50909220  .00000059  00000+0  12375-3 0  9994
2 55816  87.9036  46.3678 0001725 117.2831 242.8475 13.14505294 82345
